ONEWEB-0451             
1 51643U 22012X   22063.16667824 -.00758240  00000+0 -36214-1 0  9993
2 51643  87.3454 354.1790 0018358 159.5045 310.3041 15.21406010  4562
ONEWEB-0452             
1 51644U 22012Y   22063.16667824 -.00779833  00000+0 -33637-1 0  9991
2 51644  87.3620 354.1778 0015028 153.4487  52.8628 15.24967432  4560
ONEWEB-0455             
1 51645U 22012Z   22063.16667824 -.00716816  00000+0 -43290-1 0  9990
2 51645  87.4071 354.2516 0016480 170.0066 331.1583 15.13145875  4531
ONEWEB-0456             
1 51646U 22012AA  22063.16667824 -.00903801  00000+0 -47716-1 0  9990
2 51646  87.4163 354.2174 0015964 166.5977 201.8599 15.18050294  4558
ONEWEB-0457             
1 51647U 22012AB  22063.25002315 -.00945380  00000+0 -52628-1 0  9995
2 51647  87.4117 354.1960 0014862 161.6317 241.3770 15.16344499  4562
ONEWEB-0458             
1 51648U 22012AC  22063.25002315 -.00950996  00000+0 -54932-1 0  9995
2 51648  87.4129 354.2104 0016343 156.8368 179.4392 15.15037512  4560
ONEWEB-0461             
1 51649U 22012AD  22063.16667824 -.00756775  00000+0 -39150-1 0  9992
2 51649  87.3869 354.2169 0016723 169.5346 210.0515 15.18700298  4550
ONEWEB-0463             
1 51650U 22012AE  22062.91667824 -.00877181  00000+0 -41395-1 0  9995
2 51650  87.3503 354.2671 0017789 158.6079  34.3741 15.22206316  3622
ONEWEB-0464             
1 51651U 22012AF  22062.91667824 -.01016105  00000+0 -56196-1 0  9993
2 51651  87.4128 354.3151 0014974 161.8733 210.1801 15.16774014  3626
ONEWEB-0468             
1 51652U 22012AG  22062.91667824 -.01039044  00000+0 -61563-1 0  9995
2 51652  87.4062 354.3258 0018095 167.9140  86.4983 15.14361419  3623
ONEWEB-0473             
1 51653U 22012AH  22063.16667824 -.00909631  00000+0 -51423-1 0  9995
2 51653  87.4115 354.2389 0016215 157.6509 114.2983 15.15677870  4559
ONEWEB-0474             
1 51654U 22012AJ  22063.16667824 -.00913271  00000+0 -54597-1 0  9996
2 51654  87.4083 354.2557 0014602 170.9533 313.0577 15.13745309  4531
ONEWEB-0475             
1 51655U 22012AK  22062.91667824 -.00861357  00000+0 -41544-1 0  9994
2 51655  87.3498 354.2796 0017791 166.2859 335.5140 15.21417444  3604
EOS-4                   
1 51656U 22013A   22063.19694741  .00000935  00000+0  57068-4 0  9991
2 51656  97.5537  72.1208 0012063 180.7699 246.0599 15.12707158  2748
INSPIRESAT-1            
1 51657U 22013B   22062.91603240  .00001804  00000+0  10565-3 0  9991
2 51657  97.5608  71.8748 0011170 187.9216 172.1841 15.13065050  2709
INS-2TD                 
1 51658U 22013C   22062.98009494  .00002622  00000+0  15105-3 0  9994
2 51658  97.5595  71.9387 0010559 189.9989 170.1061 15.13257094  2718
PSLV R/B                
1 51659U 22013D   22063.01793075  .00002142  00000+0  11501-3 0  9998
2 51659  97.5731  72.1121 0032100 275.8750  83.8825 15.15619556  2723
PROGRESS-MS 19          
1 51660U 22014A   22062.58792542  .00006755  00000+0  12820-3 0  9999
2 51660  51.6442 139.5463 0005431 208.4081 304.2842 15.49550044328800
CYGNUS NG-17            
1 51712U 22015A   22062.58792542  .00006755  00000+0  12820-3 0  9998
2 51712  51.6442 139.5463 0005431 208.4081 304.2842 15.49550044328808
STARLINK-3528           
1 51714U 22016A   22063.25002315 -.00105123  00000+0 -75165-3 0  9990
2 51714  53.2193  86.8662 0001263  36.5989 342.9563 15.73272127  2899
STARLINK-3533           
1 51715U 22016B   22063.25002315 -.00010767  00000+0 -72268-4 0  9992
2 51715  53.2191  86.8611 0001517  52.5644 328.9202 15.73239491  2958
STARLINK-3543           
1 51716U 22016C   22063.25002315 -.00058030  00000+0 -41118-3 0  9997
2 51716  53.2176  86.8638 0001518  57.3098 322.8624 15.73239988  2893
STARLINK-3445           
1 51717U 22016D   22063.25002315 -.00066985  00000+0 -47559-3 0  9991
2 51717  53.2192  86.8626 0001427  51.2697 329.6009 15.73251923  2969
STARLINK-3546           
1 51718U 22016E   22063.25002315 -.00117181  00000+0 -83887-3 0  9991
2 51718  53.2175  86.8572 0001551  48.7231 334.6205 15.73290712  2899
STARLINK-3540           
1 51719U 22016F   22063.25002315 -.00087150  00000+0 -62093-3 0  9990
2 51719  53.2174  86.8595 0001290  49.0621 333.0527 15.73276731  2896
STARLINK-3526           
1 51720U 22016G   22063.25002315 -.00022087  00000+0 -15328-3 0  9999
2 51720  53.2176  86.8561 0001409  54.7665 329.2832 15.73212831  2893
STARLINK-3524           
1 51721U 22016H   22062.91667824  .00000028  00000+0  46084-5 0  9998
2 51721  53.2174  88.5065 0001195  45.6600 248.1022 15.73224897  2312
STARLINK-3535           
1 51722U 22016J   22063.25002315 -.00074591  00000+0 -53046-3 0  9997
2 51722  53.2177  86.8525 0001652  58.4834 327.4591 15.73256185  2897
STARLINK-3531           
1 51723U 22016K   22063.25002315  .00022855  00000+0  13791-3 0  9995
2 51723  53.2199  86.6784 0003808 314.4497 156.9697 15.77589946  2948
STARLINK-3529           
1 51724U 22016L   22063.25002315 -.00004427  00000+0 -27113-4 0  9997
2 51724  53.2178  86.8502 0001205  45.8772 341.3658 15.73223436  2892
STARLINK-3522           
1 51725U 22016M   22063.25002315  .00005943  00000+0  46678-4 0  9997
2 51725  53.2196  86.8544 0001506  60.5400 324.7379 15.73228364  2963
STARLINK-3527           
1 51726U 22016N   22063.25002315 -.00001352  00000+0 -52068-5 0  9991
2 51726  53.2180  86.8480 0001558  65.8990 322.4919 15.73217966  2898
STARLINK-3532           
1 51727U 22016P   22062.91667824 -.00004926  00000+0 -30664-4 0  9993
2 51727  53.2198  88.4996 0001091  51.6476 245.9358 15.73226773  2311
STARLINK-3448           
1 51728U 22016Q   22063.25002315 -.00112555  00000+0 -80610-3 0  9993
2 51728  53.2180  86.8452 0001412  61.2005 328.5763 15.73263235  2967
STARLINK-3523           
1 51729U 22016R   22063.25002315 -.00015481  00000+0 -10583-3 0  9996
2 51729  53.2176  86.8488 0001458  49.4476 338.3216 15.73255762  2960
STARLINK-3530           
1 51730U 22016S   22063.25002315 -.00053527  00000+0 -37875-3 0  9994
2 51730  53.2181  86.8426 0001272  63.2583 327.8022 15.73239325  2894
STARLINK-3514           
1 51731U 22016T   22062.91667824  .00000255  00000+0  62298-5 0  9996
2 51731  53.2176  88.4947 0001353  61.0025 239.1654 15.73217523  2311
STARLINK-3518           
1 51732U 22016U   22063.25002315  .00001176  00000+0  12790-4 0  9997
2 51732  53.2182  86.8416 0001500  64.1813 327.5237 15.73218281  2967
STARLINK-3525           
1 51733U 22016V   22062.91667824  .00000268  00000+0  63296-5 0  9991
2 51733  53.2175  88.4852 0001473  62.7718 238.4288 15.73204025  2315
STARLINK-3450           
1 51734U 22016W   22062.91667824  .00000402  00000+0  72866-5 0  9995
2 51734  53.2175  88.4789 0001790  69.5703 234.8218 15.73203923  2315
STARLINK-3517           
1 51735U 22016X   22063.25002315 -.00071672  00000+0 -50946-3 0  9994
2 51735  53.2179  86.8400 0001227  65.4833 326.8420 15.73252640  2942
STARLINK-3447           
1 51736U 22016Y   22062.91667824  .00056849  00000+0  40700-3 0  9993
2 51736  53.2183  88.4833 0001297  59.1484 246.7628 15.73184382  2313
STARLINK-3509           
1 51737U 22016Z   22063.25002315 -.00009483  00000+0 -63066-4 0  9995
2 51737  53.2179  86.8386 0001497  66.8781 326.0082 15.73257208  2898
STARLINK-3515           
1 51738U 22016AA  22062.91667824  .00073894  00000+0  52671-3 0  9994
2 51738  53.2183  88.4814 0001295  59.1214 248.0672 15.73181554  2315
STARLINK-3516           
1 51739U 22016AB  22062.91667824  .00000105  00000+0  51735-5 0  9992
2 51739  53.2175  88.4775 0001757  72.1248 232.9055 15.73204124  2314
STARLINK-3500           
1 51740U 22016AC  22063.25002315 -.00076586  00000+0 -54494-3 0  9991
2 51740  53.2184  86.8290 0001110  54.9051 343.1618 15.73255992  2895
STARLINK-3520           
1 51741U 22016AD  22063.25002315 -.00100698  00000+0 -71973-3 0  9995
2 51741  53.2181  86.8335 0001089  56.1703 339.3518 15.73263344  2948
STARLINK-3521           
1 51742U 22016AE  22063.25002315 -.00008028  00000+0 -52774-4 0  9999
2 51742  53.2185  86.8279 0001184  54.5437 344.1718 15.73227567  2967
STARLINK-3512           
1 51743U 22016AF  22062.91667824  .00083397  00000+0  59398-3 0  9992
2 51743  53.2181  88.4795 0001273  72.4890 235.3238 15.73151228  2313
STARLINK-3452           
1 51744U 22016AG  22063.25002315 -.00069310  00000+0 -49234-3 0  9998
2 51744  53.2186  86.8254 0001356  72.7655 327.2133 15.73254229  2898
STARLINK-3449           
1 51745U 22016AH  22063.25002315 -.00062875  00000+0 -44593-3 0  9991
2 51745  53.2182  86.8299 0001464  60.3219 337.1427 15.73251139  2964
STARLINK-3502           
1 51746U 22016AJ  22063.25002315 -.00050729  00000+0 -35843-3 0  9995
2 51746  53.2186  86.8230 0001681  55.3320 345.8956 15.73249351  2946
STARLINK-3446           
1 51747U 22016AK  22063.25002315 -.00094600  00000+0 -67484-3 0  9998
2 51747  53.2183  86.8263 0001211  67.1573 332.1512 15.73281880  2962
STARLINK-3501           
1 51748U 22016AL  22063.25002315 -.00078608  00000+0 -55974-3 0  9990
2 51748  53.2186  86.8203 0001455  52.6628 349.8857 15.73248210  2899
STARLINK-3451           
1 51749U 22016AM  22063.25002315 -.00000864  00000+0 -17325-5 0  9990
2 51749  53.2182  86.8236 0001503  45.7749 354.8123 15.73227103  2949
STARLINK-3505           
1 51750U 22016AN  22062.91667824  .00000296  00000+0  65262-5 0  9996
2 51750  53.2175  88.4584 0001416  76.5228 238.0817 15.73203974  2318
STARLINK-3506           
1 51751U 22016AP  22063.25002315 -.00010619  00000+0 -71178-4 0  9997
2 51751  53.2183  86.8212 0001418  54.0648 347.7631 15.73251683  2948
STARLINK-3511           
1 51752U 22016AQ  22063.25002315 -.00056958  00000+0 -40343-3 0  9993
2 51752  53.2189  86.8170 0001324  44.3956   0.0726 15.73242029  2946
STARLINK-3507           
1 51753U 22016AR  22063.25002315 -.00076124  00000+0 -54070-3 0  9993
2 51753  53.2185  86.8188 0001423  48.6858 354.4081 15.73293393  2894
